{"type":"FeatureCollection","features":[{"type":"Feature","id":"sep25-east","properties":{"title":"东访大悦城","date":"2026-09-25","distanceKm":32.4,"maxZoom":15},"geometry":{"type":"MultiLineString","coordinates":[[[116.35187,39.95093],[116.35204,39.95095],[116.35223,39.95083],[116.35242,39.95083],[116.35333,39.95102],[116.35509,39.95094],[116.36273,39.95114],[116.36434,39.95125],[116.36489,39.95121],[116.36506,39.95104],[116.36515,39.95022],[116.3653,39.94798],[116.36526,39.94731],[116.36549,39.94683],[116.36668,39.94706],[116.36866,39.94715],[116.37021,39.9471],[116.37175,39.94722],[116.37417,39.94726],[116.37488,39.94717],[116.3874,39.9473],[116.38756,39.94606],[116.38774,39.93954],[116.3878,39.93933],[116.38797,39.93919],[116.38889,39.93911],[116.38966,39.93859],[116.38961,39.93658],[116.38974,39.93576],[116.38981,39.93305],[116.38993,39.93248],[116.38993,39.93181],[116.3937,39.93192],[116.39825,39.93189],[116.39966,39.93194],[116.40224,39.93176],[116.40374,39.93184],[116.40812,39.93185],[116.40958,39.932],[116.41266,39.9321],[116.41437,39.93204],[116.41712,39.93212],[116.41923,39.93205],[116.41935,39.9321],[116.42225,39.9321],[116.42263,39.93203],[116.42648,39.93202],[116.42688,39.93188],[116.42717,39.93163],[116.42724,39.9317],[116.42753,39.93166],[116.42808,39.93174],[116.42876,39.93201],[116.42923,39.93206],[116.43116,39.93199],[116.4337,39.93215],[116.4358,39.93212],[116.43733,39.93222],[116.43874,39.93218],[116.43974,39.93205],[116.44061,39.93214],[116.44106,39.93194],[116.44156,39.9322],[116.44449,39.93218],[116.44498,39.93212],[116.44766,39.93217],[116.44872,39.93209],[116.44914,39.93221],[116.44977,39.93224],[116.45059,39.93218],[116.45234,39.9322],[116.45481,39.93202],[116.456,39.93215],[116.46114,39.93216],[116.46197,39.93225],[116.4633,39.93215],[116.47056,39.93219],[116.47077,39.93214],[116.471,39.93196],[116.47098,39.9319],[116.47094,39.932],[116.47114,39.93192],[116.47109,39.93177],[116.47131,39.93153],[116.47137,39.93133],[116.47449,39.93207],[116.47646,39.93221],[116.47804,39.93219],[116.47833,39.93226],[116.47844,39.93237],[116.48026,39.93202],[116.48325,39.93215],[116.48333,39.93194],[116.48329,39.93029],[116.48341,39.9285],[116.4834,39.92401],[116.48306,39.92274],[116.48296,39.92172],[116.48318,39.92065],[116.48337,39.92126],[116.48475,39.92152],[116.48593,39.92128],[116.48628,39.92128],[116.48728,39.92148],[116.48992,39.92149],[116.49145,39.92162],[116.49225,39.92156],[116.49556,39.92155],[116.49561,39.9216],[116.49743,39.92168],[116.50319,39.92168],[116.50442,39.92176],[116.50815,39.9217],[116.50895,39.92176],[116.50966,39.92168]],[[116.4655,39.95029],[116.46533,39.9509],[116.46533,39.95085],[116.46518,39.95103],[116.46489,39.95108],[116.46277,39.9505],[116.46243,39.95029],[116.46209,39.95035],[116.46182,39.95013],[116.46103,39.94979],[116.46024,39.94962],[116.45861,39.94909],[116.45807,39.94902],[116.45732,39.9487],[116.45623,39.94851],[116.45611,39.94839],[116.45523,39.94804],[116.45248,39.94763],[116.45048,39.94725],[116.44443,39.94643],[116.44405,39.94651],[116.44169,39.94815],[116.43981,39.94932],[116.43953,39.9489],[116.43846,39.94785],[116.43352,39.94353],[116.43332,39.94342],[116.43235,39.94331],[116.43164,39.94334],[116.4311,39.94355],[116.42984,39.9435],[116.42947,39.94337],[116.42925,39.94337],[116.42865,39.94342],[116.4279,39.94359],[116.42814,39.94669],[116.42775,39.9473],[116.42709,39.94783],[116.42694,39.94835],[116.42677,39.94847],[116.42648,39.94853],[116.42552,39.9485],[116.42394,39.94862],[116.42024,39.94846],[116.41924,39.9485],[116.4184,39.9484],[116.41417,39.94831],[116.41084,39.94813],[116.4071,39.94807],[116.40584,39.94797],[116.40467,39.94799],[116.40265,39.94786],[116.39734,39.94796],[116.39016,39.9479],[116.38972,39.94781],[116.38866,39.9478],[116.38246,39.94779],[116.38101,39.94785],[116.37636,39.94778],[116.37622,39.94772],[116.37515,39.9477],[116.37243,39.94771],[116.37145,39.94764],[116.36954,39.94773],[116.3661,39.94756],[116.36595,39.94773],[116.36592,39.94886],[116.36552,39.95124],[116.36529,39.95496],[116.36536,39.95584],[116.36524,39.95629],[116.36505,39.95638],[116.36497,39.95688],[116.36437,39.9568],[116.36322,39.95695],[116.36201,39.95676],[116.36052,39.95684],[116.35918,39.95672],[116.35541,39.95674],[116.35529,39.95683],[116.35523,39.95969],[116.35499,39.96247],[116.355,39.96399],[116.3549,39.96498],[116.35495,39.96574],[116.35483,39.96596],[116.35421,39.96613],[116.34993,39.9662],[116.3477,39.96615],[116.34489,39.96623],[116.34423,39.96609],[116.34383,39.96608],[116.34358,39.96614],[116.34356,39.96658],[116.34338,39.96664],[116.33961,39.96659],[116.33601,39.96661],[116.33479,39.96674],[116.33324,39.96669],[116.33293,39.9693],[116.33207,39.97261],[116.33181,39.9727],[116.32945,39.97263],[116.32912,39.97277]]]}},{"type":"Feature","id":"sep26-lugou","properties":{"title":"南过卢沟桥","date":"2026-09-26","distanceKm":20.2,"maxZoom":15},"geometry":{"type":"MultiLineString","coordinates":[[[116.31619,39.96611],[116.31538,39.96603],[116.31556,39.96559],[116.31553,39.96546],[116.31543,39.96551],[116.31556,39.96534],[116.31562,39.96538],[116.3152,39.96534],[116.31506,39.96525],[116.31504,39.96513],[116.31601,39.96231],[116.31615,39.96094],[116.31674,39.95735],[116.31684,39.95637],[116.31676,39.95571],[116.3169,39.95567],[116.31731,39.9522],[116.3182,39.94647],[116.31822,39.94571],[116.31814,39.94551],[116.31792,39.94535],[116.31787,39.94511],[116.31832,39.94457],[116.31846,39.94408],[116.31809,39.94408],[116.31793,39.9442],[116.31766,39.94418],[116.31826,39.944],[116.31848,39.94405],[116.31857,39.94393],[116.31892,39.94003],[116.31909,39.9395],[116.31907,39.93873],[116.31927,39.93787],[116.31913,39.93665],[116.31932,39.93434],[116.31926,39.93182],[116.31929,39.93151],[116.31938,39.93143],[116.31931,39.93144],[116.31943,39.93043],[116.31942,39.92679],[116.31933,39.92548],[116.31941,39.92257],[116.31929,39.92249],[116.31894,39.92247],[116.31521,39.92269],[116.31251,39.92276],[116.31051,39.92294],[116.3078,39.92296],[116.30552,39.92309],[116.30511,39.92317],[116.30462,39.92352],[116.30383,39.92346],[116.30315,39.92316],[116.30309,39.92296],[116.30371,39.9221],[116.30376,39.92188],[116.3036,39.92013],[116.30368,39.91837],[116.30381,39.91756],[116.30374,39.91621],[116.30387,39.91297],[116.30387,39.91014],[116.30372,39.90804],[116.30363,39.90782],[116.30348,39.90773],[116.30231,39.90759],[116.30186,39.90747],[116.30115,39.90675],[116.3008,39.90658],[116.2989,39.90673],[116.29697,39.90676],[116.29484,39.90663],[116.2947,39.90656],[116.2926,39.90669],[116.292,39.90652],[116.29135,39.90669],[116.29059,39.90676],[116.28867,39.90646],[116.28876,39.90579],[116.28873,39.89998],[116.28884,39.89787],[116.28871,39.89604],[116.28879,39.89212],[116.2887,39.88979],[116.28878,39.88847],[116.28867,39.88743],[116.28885,39.88622],[116.2888,39.88578],[116.28861,39.88562],[116.28878,39.8851],[116.28877,39.88451],[116.28868,39.88427],[116.28798,39.88395],[116.28728,39.88397],[116.28699,39.88388],[116.28679,39.88367],[116.28663,39.88303],[116.28637,39.88269],[116.28292,39.88027],[116.28124,39.87899],[116.28001,39.87822],[116.27627,39.87652],[116.27355,39.87515],[116.27159,39.87401],[116.27075,39.87366],[116.26985,39.8734],[116.26877,39.8729],[116.26505,39.87091],[116.25983,39.86844],[116.25785,39.8674],[116.25515,39.86626],[116.2534,39.86601],[116.25164,39.86496],[116.24989,39.86411],[116.23688,39.85887],[116.23502,39.85836],[116.2334,39.85807],[116.23309,39.85809],[116.2325,39.85839],[116.23225,39.85838],[116.23159,39.85817],[116.23158,39.85758],[116.23183,39.85752],[116.23242,39.8576],[116.23253,39.85749],[116.23257,39.85721],[116.23119,39.852],[116.23075,39.8511],[116.23001,39.85054],[116.22697,39.84909],[116.22623,39.84863],[116.22578,39.84847],[116.22508,39.84933],[116.22454,39.85024]],[[116.22278,39.84669],[116.22213,39.84635],[116.22179,39.84635],[116.22042,39.84611],[116.21714,39.84707],[116.21684,39.84728],[116.21636,39.84808]]]}},{"type":"Feature","id":"sep26-xishan","properties":{"title":"西探不老泉","date":"2026-09-26","distanceKm":34.9,"maxZoom":15},"geometry":{"type":"MultiLineString","coordinates":[[[116.21316,39.85811],[116.21072,39.86157],[116.20964,39.86342],[116.20931,39.86375],[116.20843,39.86367],[116.20798,39.86389],[116.20713,39.86503],[116.20654,39.86557],[116.20534,39.86724],[116.20496,39.868],[116.20491,39.86807],[116.20482,39.86805],[116.2043,39.86889],[116.20325,39.87019],[116.20257,39.87145],[116.20157,39.87532],[116.20105,39.87635],[116.19889,39.8785],[116.19684,39.87988],[116.19612,39.88048],[116.19384,39.88187],[116.19041,39.88413],[116.18942,39.88468],[116.18578,39.88569],[116.18498,39.8864],[116.18472,39.8869],[116.18456,39.88756],[116.18442,39.88772],[116.18319,39.88824],[116.18169,39.88917],[116.18057,39.88967],[116.18015,39.88981],[116.17829,39.89012],[116.17783,39.8905],[116.17788,39.89095],[116.17778,39.89102],[116.1759,39.89123],[116.17323,39.89098],[116.16924,39.89087],[116.1674,39.89061],[116.16642,39.89042],[116.16635,39.89032],[116.16913,39.89082],[116.16941,39.89093],[116.16942,39.89261],[116.16961,39.89313],[116.17006,39.89345],[116.17008,39.89355],[116.16742,39.89404],[116.16717,39.89428],[116.16737,39.89447],[116.16782,39.89463],[116.16934,39.89483],[116.16999,39.89498],[116.17049,39.8952],[116.1709,39.89567],[116.17109,39.89641],[116.17091,39.89688],[116.17053,39.89733],[116.16689,39.89999],[116.16645,39.90063],[116.16627,39.90164],[116.16635,39.90247],[116.16628,39.90651],[116.16626,39.90646],[116.16113,39.90641],[116.15897,39.90644],[116.15779,39.90655],[116.15621,39.90641],[116.15395,39.90643],[116.15389,39.90638],[116.15295,39.90644],[116.15157,39.90639],[116.14619,39.90645],[116.1462,39.90639],[116.13507,39.90642],[116.13277,39.90622],[116.12876,39.90605],[116.12298,39.90568],[116.12178,39.90568],[116.11943,39.90552],[116.11649,39.90543],[116.11476,39.90527],[116.10991,39.90508],[116.10564,39.90482],[116.10479,39.90485],[116.10198,39.9053],[116.09969,39.90581],[116.09751,39.9066],[116.09649,39.90708],[116.09527,39.9078],[116.09368,39.90843],[116.09162,39.90897],[116.0894,39.90919],[116.08884,39.90935],[116.08832,39.90961],[116.08803,39.90993],[116.08778,39.91097],[116.08737,39.91146],[116.08664,39.91186],[116.08612,39.91204],[116.0837,39.91241],[116.08352,39.91221],[116.08328,39.9113],[116.08337,39.91161],[116.0831,39.91175],[116.08338,39.91157],[116.08325,39.91131],[116.08225,39.91164],[116.08215,39.91163],[116.08207,39.91148],[116.08253,39.91088],[116.08349,39.91052],[116.08388,39.91026],[116.08402,39.90985],[116.08379,39.90927],[116.0827,39.90818],[116.08227,39.90793],[116.08084,39.90737],[116.08056,39.90718],[116.07978,39.90638],[116.07929,39.90622],[116.0791,39.90627],[116.07903,39.90656],[116.07914,39.90673],[116.07953,39.90698],[116.07951,39.90705],[116.08113,39.90782],[116.08254,39.90876],[116.08266,39.90902],[116.08267,39.90939],[116.08249,39.90965],[116.08219,39.90984],[116.08154,39.90995],[116.08079,39.90988],[116.07997,39.91004],[116.07941,39.91006],[116.07854,39.90996],[116.07823,39.91],[116.07785,39.9102],[116.07742,39.9103],[116.07615,39.91002],[116.07499,39.91054],[116.07455,39.9106],[116.07401,39.91046],[116.07152,39.90909],[116.0709,39.90886],[116.07062,39.90885],[116.07036,39.90895],[116.07025,39.90915],[116.07045,39.91072],[116.07023,39.91092],[116.06995,39.9119],[116.06976,39.91192],[116.06824,39.91129],[116.06749,39.91139],[116.06729,39.91154],[116.067,39.912],[116.06646,39.91203],[116.06636,39.9121],[116.0663,39.91243],[116.06615,39.91254],[116.06589,39.91255],[116.06623,39.91252],[116.06622,39.91262],[116.06606,39.9127],[116.06555,39.91275],[116.06618,39.91262],[116.06646,39.91197],[116.06697,39.91195],[116.06731,39.91147],[116.0675,39.91137],[116.06821,39.91128],[116.06853,39.91148],[116.06986,39.9119],[116.07019,39.91103],[116.07034,39.91078],[116.07047,39.91074],[116.07033,39.91042],[116.07015,39.90943],[116.07025,39.90902],[116.07058,39.90881],[116.07111,39.90887],[116.07411,39.91036],[116.07469,39.91051],[116.07503,39.91046],[116.07594,39.91004],[116.07628,39.90997],[116.07731,39.91016],[116.07854,39.90985],[116.07953,39.90993],[116.08072,39.90978],[116.08177,39.90981],[116.08216,39.90972],[116.08244,39.90952],[116.08258,39.90928],[116.0825,39.9088],[116.08222,39.90856],[116.07895,39.90671],[116.07882,39.90656],[116.07885,39.90631],[116.07928,39.90608],[116.07973,39.90618],[116.08092,39.90729],[116.08226,39.90785],[116.08296,39.90826],[116.08374,39.90904],[116.0841,39.90952],[116.08414,39.90995],[116.08382,39.91043],[116.08357,39.91059],[116.08244,39.91102],[116.08211,39.91148],[116.08242,39.9115],[116.08306,39.9113],[116.08339,39.91127],[116.08366,39.91191],[116.08389,39.91209],[116.08422,39.91217],[116.08603,39.91189],[116.08659,39.91173],[116.08706,39.91149],[116.08741,39.91091],[116.08765,39.90997],[116.08796,39.90962],[116.08847,39.90933],[116.08928,39.90908],[116.09121,39.90877],[116.09334,39.90823],[116.09822,39.9059],[116.09915,39.90526],[116.10105,39.90505],[116.10234,39.90456],[116.103,39.90446],[116.10376,39.9042],[116.10446,39.90441],[116.10457,39.90452],[116.10466,39.90448],[116.1043,39.90442],[116.10474,39.90446],[116.10464,39.9045],[116.10487,39.90436],[116.10511,39.90433],[116.10782,39.90436],[116.10897,39.90452],[116.11084,39.90466],[116.12146,39.90504],[116.12311,39.90525],[116.12491,39.90537],[116.12753,39.9055],[116.12958,39.90549],[116.13224,39.90575],[116.13541,39.90584],[116.13886,39.90605],[116.15638,39.906],[116.1571,39.90585],[116.16116,39.90592],[116.16133,39.90595],[116.16132,39.90625],[116.16115,39.90639],[116.16092,39.90642],[116.15679,39.90654],[116.1558,39.90647],[116.15192,39.90668],[116.15195,39.90847],[116.15183,39.90884],[116.15099,39.90883],[116.14995,39.90893],[116.1498,39.9089],[116.14969,39.90878],[116.14878,39.90888],[116.14852,39.90923],[116.14851,39.90995],[116.14837,39.91018],[116.14686,39.91024],[116.14657,39.91022],[116.14652,39.91004],[116.14634,39.91004],[116.14474,39.91055],[116.14461,39.91068],[116.14459,39.91087],[116.14427,39.91098],[116.14394,39.91124],[116.14406,39.912],[116.14405,39.91307],[116.14414,39.91322],[116.14438,39.91331],[116.14863,39.9133],[116.14873,39.9134],[116.14876,39.91443],[116.14892,39.91456],[116.15056,39.9145],[116.15079,39.91441],[116.15098,39.91407],[116.15114,39.91403],[116.15128,39.9141],[116.15144,39.91459],[116.1512,39.91591],[116.15086,39.91713],[116.15079,39.91796],[116.15199,39.91803],[116.15393,39.91802],[116.15614,39.91815],[116.15679,39.91827],[116.15829,39.91882],[116.15939,39.91902],[116.16076,39.91906],[116.16254,39.919],[116.16271,39.91907],[116.1628,39.91923],[116.16314,39.91938],[116.16318,39.92015]]]}},{"type":"Feature","id":"sep26-shougang-return","properties":{"title":"首钢和暴雨归途","date":"2026-09-26","distanceKm":22.3,"maxZoom":15},"geometry":{"type":"MultiLineString","coordinates":[[[116.15914,39.9229],[116.16038,39.92298],[116.16489,39.92291],[116.16573,39.92284],[116.16587,39.92277],[116.16614,39.92281],[116.16805,39.92339],[116.17199,39.92431],[116.17274,39.92462],[116.17378,39.92535],[116.17398,39.92534],[116.17402,39.92513],[116.17414,39.92503],[116.17456,39.92502],[116.17938,39.92615],[116.18176,39.92681],[116.19108,39.92912],[116.19359,39.9303],[116.1941,39.93062],[116.19496,39.93121],[116.1953,39.93152],[116.19599,39.93241],[116.19634,39.93256],[116.2001,39.93234],[116.20681,39.93219],[116.21615,39.9317],[116.21664,39.93171],[116.21609,39.9318],[116.21674,39.93178],[116.21809,39.9316],[116.21969,39.93119],[116.22099,39.93107],[116.22156,39.93105],[116.22351,39.93137],[116.22568,39.93132]],[[116.22564,39.93124],[116.22644,39.93116],[116.22709,39.93093],[116.22821,39.93019],[116.22947,39.9292],[116.23034,39.92873],[116.23124,39.92846],[116.23305,39.92819],[116.23649,39.92809],[116.23854,39.92815],[116.23991,39.92803],[116.2487,39.92813],[116.25019,39.92801],[116.25274,39.92795],[116.25397,39.92779],[116.25524,39.92782],[116.25766,39.92773],[116.25832,39.92764],[116.26054,39.92767],[116.26498,39.92748],[116.26847,39.92701],[116.26966,39.92698],[116.26973,39.927],[116.26959,39.92746],[116.2695,39.9302],[116.26941,39.93071],[116.26944,39.93094],[116.26965,39.93101],[116.2719,39.93092],[116.27477,39.93115],[116.27623,39.93115],[116.27739,39.93104],[116.27945,39.93069],[116.28062,39.93063],[116.28199,39.93064],[116.28422,39.93078],[116.28666,39.93076],[116.29027,39.93085],[116.29211,39.93084],[116.29327,39.93074],[116.29691,39.93083],[116.29847,39.93075],[116.3015,39.93085],[116.30348,39.93083],[116.30399,39.93076],[116.30475,39.93088],[116.30755,39.9308],[116.30855,39.93093],[116.30891,39.93087],[116.31065,39.93094],[116.31466,39.93094],[116.3151,39.931],[116.3156,39.9312],[116.31623,39.93097],[116.31687,39.93088],[116.31914,39.9309],[116.31931,39.93099],[116.31929,39.93121],[116.31987,39.93137],[116.31996,39.93147],[116.32005,39.93308],[116.32015,39.93338],[116.3213,39.93351],[116.32289,39.93415],[116.32366,39.93437],[116.32734,39.93489],[116.32721,39.93533],[116.32713,39.93633],[116.32716,39.93654],[116.32729,39.93664],[116.32921,39.93656],[116.33119,39.93664],[116.33473,39.93664],[116.33588,39.93672],[116.33615,39.93662],[116.33617,39.93623],[116.33642,39.93614],[116.33652,39.93621],[116.33658,39.93738],[116.33593,39.93744],[116.33447,39.9373],[116.33684,39.93735],[116.33906,39.93759],[116.34038,39.93789],[116.3416,39.93833],[116.34338,39.93871],[116.34522,39.93894],[116.34604,39.93917],[116.34613,39.9393],[116.34592,39.9419],[116.34544,39.9426],[116.34444,39.94305],[116.34394,39.94405],[116.34348,39.94539],[116.34327,39.94644],[116.3416,39.95196],[116.34053,39.95595],[116.33907,39.9594],[116.33862,39.96005],[116.33705,39.96115],[116.3358,39.96216],[116.33441,39.96306],[116.33401,39.96349],[116.33378,39.96391],[116.33346,39.96564],[116.33348,39.96622],[116.33319,39.96688],[116.33293,39.96932],[116.33221,39.97257],[116.33186,39.97263],[116.33136,39.97251],[116.33072,39.97261],[116.32963,39.9726],[116.32926,39.97272],[116.32908,39.97295]]]}},{"type":"Feature","id":"oct01-beijing-tianjin","properties":{"title":"一路东南行：北京至天津","date":"2026-10-01","distanceKm":129.8,"maxZoom":11},"geometry":{"type":"MultiLineString","coordinates":[[[116.33197,39.97352],[116.33222,39.97102],[116.33271,39.96911],[116.33298,39.96643],[116.33313,39.96611],[116.33359,39.96602],[116.335,39.96604],[116.33714,39.9659],[116.33913,39.96606],[116.34385,39.96607]],[[116.45512,39.92242],[116.45505,39.91917],[116.45493,39.91837],[116.45502,39.91831],[116.45504,39.91779],[116.45629,39.91747],[116.45805,39.91666],[116.45931,39.91641],[116.4617,39.91543],[116.46334,39.91501],[116.4634,39.91477],[116.46325,39.91362],[116.4634,39.91275],[116.46331,39.91224],[116.46338,39.91141],[116.4633,39.9101],[116.46314,39.90947],[116.46329,39.90851],[116.46346,39.90833],[116.46432,39.90821],[116.4651,39.9084],[116.46566,39.90822],[116.46558,39.90833],[116.46562,39.90896]],[[116.46945,39.90763],[116.46954,39.9073],[116.46976,39.90718],[116.47123,39.90713],[116.4714,39.90716],[116.47145,39.90724],[116.47149,39.90709],[116.47137,39.90679],[116.47143,39.90648],[116.47158,39.90657],[116.47162,39.9065],[116.47279,39.90656],[116.47397,39.90641],[116.47541,39.90657],[116.4785,39.90647],[116.48035,39.90645],[116.4805,39.9065],[116.4812,39.90622],[116.48164,39.9059],[116.48286,39.90459],[116.48308,39.90353],[116.48335,39.90333],[116.4838,39.9033],[116.48428,39.90336],[116.48459,39.90353],[116.48477,39.90384],[116.48483,39.90446],[116.48516,39.90477],[116.48584,39.9052],[116.48798,39.90608],[116.48905,39.90631],[116.49335,39.90646],[116.49863,39.90635],[116.50126,39.90645],[116.50167,39.90635],[116.50293,39.90632],[116.50363,39.90637],[116.50676,39.90637],[116.50839,39.90629],[116.51158,39.90638],[116.51324,39.90635],[116.51562,39.90668],[116.52057,39.90767],[116.52318,39.90792],[116.52337,39.90787],[116.5251,39.90793],[116.53308,39.90781],[116.5345,39.90755],[116.53515,39.90729],[116.53696,39.90631],[116.53739,39.90614],[116.53804,39.90602],[116.53917,39.90611],[116.53957,39.90622],[116.54095,39.90721],[116.54154,39.90743],[116.54223,39.90755],[116.5462,39.90773],[116.54803,39.90768],[116.55288,39.90786],[116.56361,39.90803],[116.56416,39.90812],[116.56574,39.90816],[116.57141,39.90881],[116.57275,39.90888],[116.57558,39.90877],[116.58078,39.90816],[116.5827,39.90801],[116.59525,39.90764],[116.59529,39.90772],[116.59467,39.90961],[116.59462,39.91015],[116.59483,39.91063],[116.59529,39.91098],[116.59893,39.91121],[116.59949,39.91136],[116.60205,39.91157],[116.60357,39.91155],[116.60936,39.91195],[116.61377,39.91235],[116.61488,39.91235],[116.61755,39.91251],[116.62095,39.91287],[116.6211,39.91284],[116.62136,39.91259],[116.62159,39.91258],[116.62236,39.91304],[116.62418,39.91394],[116.6272,39.91532],[116.62818,39.9157],[116.62964,39.91609],[116.6308,39.9166],[116.63254,39.91776],[116.63535,39.92055],[116.63596,39.92091],[116.63693,39.92122],[116.63826,39.92146],[116.63994,39.92145],[116.6413,39.92124],[116.64269,39.92083],[116.64286,39.92084],[116.64274,39.92077],[116.6436,39.92071],[116.64683,39.92086],[116.64771,39.92084],[116.64952,39.92103],[116.65057,39.92099],[116.65209,39.92112],[116.6525,39.92107],[116.65282,39.92086],[116.65298,39.92084],[116.65375,39.92108],[116.65462,39.92113],[116.65484,39.92099],[116.65488,39.92046],[116.65511,39.92006],[116.65629,39.92025],[116.65695,39.92045],[116.65735,39.92032],[116.65713,39.92053],[116.65714,39.92064],[116.65725,39.92069],[116.65708,39.92084],[116.65699,39.92089],[116.65802,39.91991],[116.65837,39.91941],[116.65914,39.91859],[116.65991,39.91804],[116.66052,39.91829],[116.66052,39.91809],[116.66018,39.91818],[116.66003,39.9181],[116.66005,39.91801],[116.66021,39.91793],[116.66018,39.91799],[116.66202,39.91646],[116.66303,39.91605],[116.66345,39.9155],[116.66413,39.91501],[116.66463,39.91425],[116.66507,39.91387],[116.66579,39.91339],[116.66603,39.91333],[116.66608,39.91347],[116.66677,39.91312],[116.66756,39.91239],[116.66957,39.91121],[116.67072,39.91022],[116.67153,39.90979],[116.6742,39.90792],[116.6766,39.90692],[116.67792,39.90612],[116.68024,39.90498],[116.68209,39.90395],[116.68257,39.90356],[116.68545,39.90165],[116.68593,39.90121],[116.68747,39.90012],[116.69111,39.89675],[116.69173,39.89632],[116.69297,39.89504],[116.6936,39.89465],[116.69458,39.89385],[116.69582,39.89338],[116.69679,39.89285],[116.6992,39.89178],[116.70224,39.89104],[116.70386,39.89051],[116.70465,39.89014],[116.70416,39.89047],[116.70633,39.88977],[116.70676,39.88931],[116.70603,39.88956],[116.70628,39.88941],[116.70629,39.88903],[116.70648,39.8889],[116.70709,39.88876],[116.70771,39.88834],[116.70753,39.88791],[116.70752,39.88628],[116.70734,39.88532],[116.70707,39.8846],[116.70695,39.88449],[116.7068,39.88448],[116.70605,39.88467],[116.70541,39.88495],[116.70336,39.88635],[116.70355,39.88806],[116.70373,39.88791],[116.70384,39.88744],[116.70423,39.88751],[116.70435,39.88797],[116.70431,39.88807],[116.70409,39.88811],[116.70386,39.88811],[116.70389,39.88804],[116.70372,39.88811],[116.70354,39.88804],[116.7035,39.88837],[116.70462,39.89644],[116.70467,39.89771],[116.70443,39.89999],[116.70443,39.90092],[116.70599,39.90138],[116.70728,39.90137],[116.70732,39.90171],[116.70772,39.90178],[116.70742,39.90339],[116.70751,39.90357],[116.71159,39.90369],[116.71216,39.90378],[116.7121,39.90548],[116.71187,39.90561],[116.71197,39.90601],[116.71195,39.90561],[116.71218,39.9055],[116.71546,39.90552],[116.7154,39.90381],[116.71548,39.90369],[116.71548,39.90319],[116.71537,39.90252],[116.71548,39.90197],[116.71291,39.90191],[116.71267,39.90184],[116.71259,39.90172],[116.7128,39.901],[116.71277,39.9001],[116.71221,39.89869],[116.71198,39.8975],[116.71267,39.89464],[116.71266,39.89382],[116.71245,39.89291],[116.71251,39.8914],[116.71374,39.8913],[116.72375,39.89143],[116.72552,39.89125],[116.72712,39.8909],[116.72764,39.89069],[116.72701,39.88882],[116.72586,39.88602],[116.72578,39.88533],[116.7259,39.88455],[116.72611,39.88403],[116.72653,39.8835],[116.72862,39.88138],[116.73225,39.87797],[116.73257,39.87751],[116.73306,39.87651],[116.73462,39.87219],[116.73526,39.87072],[116.73739,39.86499],[116.73751,39.86429],[116.73769,39.85975],[116.73773,39.85774],[116.73764,39.85677],[116.7377,39.85616],[116.73785,39.85572],[116.73948,39.85515],[116.74069,39.85455],[116.74473,39.85186],[116.74689,39.85081],[116.75009,39.84893],[116.75398,39.84685],[116.75838,39.84493],[116.76194,39.84324],[116.76591,39.84073],[116.76723,39.83951],[116.7677,39.83891],[116.77109,39.83302],[116.7735,39.82954],[116.77349,39.82938],[116.77314,39.82927],[116.77321,39.82912],[116.77312,39.82909],[116.77314,39.82922],[116.77324,39.82921],[116.77314,39.82921],[116.77323,39.82902],[116.77317,39.82899],[116.7732,39.82907],[116.77343,39.82903],[116.77331,39.82924],[116.77338,39.8293],[116.77367,39.82935],[116.77381,39.82922],[116.77468,39.82776],[116.77495,39.82713],[116.77511,39.82639],[116.77512,39.82529],[116.77475,39.82389],[116.77388,39.82146],[116.77172,39.81594],[116.77148,39.81515],[116.77139,39.81424],[116.77148,39.81276],[116.77218,39.80872],[116.77245,39.80761],[116.77315,39.80568],[116.77518,39.8009],[116.77575,39.79976],[116.77696,39.79775],[116.77804,39.79516],[116.7791,39.79193],[116.78013,39.78928],[116.78083,39.78787],[116.7819,39.78653],[116.78598,39.7827],[116.78708,39.78136],[116.78746,39.78106],[116.78916,39.77891],[116.79299,39.77463],[116.79685,39.77013],[116.79787,39.76921],[116.80249,39.7656],[116.80384,39.76489],[116.80439,39.76469],[116.80546,39.7645],[116.80835,39.76438],[116.81062,39.76415],[116.81455,39.76328],[116.81698,39.76285],[116.82154,39.76253],[116.82381,39.76214],[116.8254,39.76173],[116.82636,39.7614],[116.8275,39.76079],[116.8282,39.76031],[116.83431,39.75568],[116.83577,39.75473],[116.83753,39.75379],[116.83887,39.75295],[116.83983,39.75196],[116.84217,39.74839],[116.84287,39.74757],[116.84357,39.74691],[116.84383,39.74654],[116.84862,39.74213],[116.8496,39.74148],[116.85214,39.74004],[116.85468,39.73872],[116.85703,39.7373],[116.86442,39.73193],[116.86579,39.73078],[116.86853,39.72768],[116.87462,39.71978],[116.87655,39.71751],[116.87667,39.71725],[116.87702,39.71691],[116.87832,39.71522],[116.8789,39.71435],[116.88229,39.71016],[116.88267,39.71026],[116.88279,39.71037],[116.88303,39.71038],[116.891,39.71032],[116.89839,39.71083],[116.89865,39.7108],[116.89881,39.71058]],[[116.89884,39.71064],[116.89878,39.7108],[116.90104,39.71097],[116.90106,39.71117],[116.9009,39.71128],[116.90064,39.71129],[116.90057,39.71134],[116.90064,39.71147],[116.90052,39.71138],[116.90061,39.71132],[116.8994,39.71123],[116.89881,39.71108],[116.89778,39.71108],[116.89402,39.71075],[116.89156,39.71061],[116.88402,39.71059],[116.88265,39.71065],[116.88241,39.71076],[116.88225,39.71068],[116.88216,39.71052],[116.88235,39.71014],[116.88435,39.70785],[116.88531,39.70687],[116.88626,39.70568],[116.88654,39.70546],[116.88712,39.70466],[116.88775,39.70415],[116.88964,39.70215],[116.89171,39.69979],[116.89359,39.69671],[116.89445,39.69554],[116.89546,39.69395],[116.89663,39.69191],[116.8991,39.68828],[116.90157,39.68426],[116.90348,39.68161],[116.90372,39.6811],[116.90525,39.67935],[116.90854,39.67483],[116.90922,39.67377],[116.91116,39.67139],[116.91586,39.66701],[116.91747,39.66531],[116.9191,39.66393],[116.92075,39.66237],[116.92181,39.66157],[116.92294,39.66049],[116.92462,39.65919],[116.92902,39.65525],[116.93143,39.65321],[116.9316,39.65297],[116.93316,39.65175],[116.93877,39.64702],[116.93879,39.64708],[116.93929,39.64659],[116.94011,39.6456],[116.94509,39.6371],[116.94789,39.63298],[116.9484,39.63206],[116.94961,39.63039],[116.95021,39.62972],[116.95164,39.62848],[116.95215,39.62792],[116.95253,39.62735],[116.95305,39.62601],[116.95468,39.62056],[116.95556,39.61807],[116.95616,39.61709],[116.95908,39.61371],[116.95941,39.61343],[116.95971,39.61285],[116.96191,39.60521],[116.96256,39.60251],[116.96266,39.59931],[116.96284,39.59775],[116.96692,39.5799],[116.96706,39.57811],[116.96718,39.57391],[116.96736,39.57262],[116.96905,39.56617],[116.96998,39.56309],[116.97065,39.56126],[116.97341,39.5527],[116.97462,39.54724],[116.97504,39.5463],[116.97638,39.54387],[116.98065,39.53646],[116.98437,39.52868],[116.98696,39.52289],[116.98735,39.52182],[116.98933,39.51784],[116.99024,39.5162],[116.9903,39.51622],[116.99174,39.51329],[116.99935,39.49744],[117.0026,39.49045],[117.00486,39.48745],[117.00615,39.48557],[117.00752,39.48388],[117.01019,39.48006],[117.0113,39.47873],[117.01276,39.47675],[117.01473,39.47387],[117.01476,39.47344],[117.01575,39.47305],[117.01701,39.47229],[117.02278,39.47075],[117.02378,39.47038],[117.02492,39.46978],[117.02577,39.4691],[117.02638,39.46845],[117.02975,39.4641],[117.03081,39.46316],[117.03172,39.46263],[117.03292,39.46213],[117.03413,39.46182],[117.04166,39.46077],[117.04308,39.46047],[117.04487,39.45988],[117.04628,39.45918],[117.04751,39.4583],[117.04886,39.45695],[117.04951,39.45607],[117.04992,39.45528],[117.05025,39.45445],[117.05048,39.45345],[117.05053,39.4519],[117.05022,39.4502],[117.04906,39.44723],[117.04882,39.44703],[117.04871,39.44657],[117.04876,39.44618],[117.04864,39.44557],[117.04863,39.44471],[117.04901,39.44326],[117.04969,39.44203],[117.05719,39.43159],[117.058,39.4301],[117.05872,39.42919],[117.05996,39.42729],[117.06301,39.42238],[117.06364,39.42111],[117.06372,39.42043],[117.06396,39.41973],[117.06423,39.4179],[117.06429,39.41524],[117.06447,39.41441],[117.06485,39.41372],[117.06516,39.41335],[117.06746,39.41132],[117.06797,39.4106],[117.06847,39.40925],[117.06944,39.40601],[117.0698,39.40515],[117.06997,39.40408],[117.06994,39.40199],[117.06977,39.40122],[117.06942,39.40036],[117.06619,39.39605],[117.06473,39.39431],[117.06413,39.39374],[117.06301,39.39305],[117.06263,39.39262],[117.06228,39.39202],[117.06206,39.39137],[117.06187,39.38998],[117.06169,39.38989],[117.06055,39.38978],[117.05884,39.38972],[117.05852,39.38954],[117.05777,39.38867],[117.05755,39.38827],[117.05748,39.38711],[117.05762,39.38661],[117.05786,39.38463],[117.0574,39.38303],[117.05693,39.38188],[117.05618,39.37957],[117.05515,39.37725],[117.0548,39.37568],[117.05026,39.36235],[117.04995,39.36162],[117.04838,39.35893],[117.04889,39.35885],[117.04985,39.35853],[117.05136,39.35792],[117.05366,39.3569],[117.05426,39.3565],[117.05414,39.3565],[117.05395,39.3567],[117.05381,39.35671],[117.05388,39.35669]],[[117.06046,39.35392],[117.06174,39.35352],[117.06226,39.35343],[117.06444,39.35325],[117.06667,39.35325],[117.06694,39.35318],[117.06723,39.35298],[117.06881,39.34872],[117.06998,39.34527],[117.07076,39.34335],[117.07776,39.3334],[117.07914,39.33148],[117.08018,39.33039],[117.0814,39.32955],[117.08518,39.32734],[117.08593,39.32673],[117.08665,39.32577],[117.08688,39.3248],[117.08674,39.32379],[117.0863,39.32295],[117.08575,39.32226],[117.08437,39.32086],[117.08376,39.31991],[117.08355,39.31895],[117.08376,39.31771],[117.0842,39.31664],[117.08501,39.31531],[117.08693,39.31268],[117.08835,39.31048],[117.09129,39.30446],[117.09174,39.30337],[117.09273,39.30147],[117.09322,39.30025],[117.09574,39.29493],[117.09641,39.29277],[117.09767,39.28669],[117.0989,39.28151],[117.09891,39.28103],[117.09873,39.28089],[117.0984,39.28086],[117.09892,39.28096],[117.09918,39.2802],[117.10089,39.27307],[117.10154,39.26997],[117.10232,39.26721],[117.10534,39.25885],[117.10578,39.2579],[117.10681,39.2561],[117.10751,39.25513],[117.10854,39.25335],[117.1123,39.24387],[117.11246,39.24315],[117.11245,39.24279],[117.1123,39.24233],[117.11104,39.24021],[117.11038,39.2397],[117.10949,39.23929],[117.10762,39.23795],[117.10678,39.23716],[117.10588,39.23615],[117.10493,39.23457],[117.10441,39.23345],[117.1042,39.23278],[117.10307,39.23045],[117.10008,39.22467],[117.09963,39.22406],[117.09898,39.22379],[117.09776,39.22364],[117.09716,39.2237],[117.09664,39.22389],[117.09543,39.22457],[117.09429,39.22503],[117.07494,39.22982],[117.07471,39.22992],[117.07467,39.23027],[117.07448,39.23041],[117.0739,39.2304],[117.07038,39.2311],[117.06933,39.23124],[117.06908,39.23139],[117.06704,39.23139],[117.06603,39.23153]]]}},{"type":"Feature","id":"oct02-tianjin-city","properties":{"title":"天津市区骑行","date":"2026-10-02","distanceKm":16.8,"maxZoom":15},"geometry":{"type":"MultiLineString","coordinates":[[[117.06286,39.23223],[117.06527,39.23143],[117.0664,39.23126],[117.06842,39.23116],[117.06983,39.23101],[117.0719,39.2306],[117.07312,39.23027],[117.07389,39.23018],[117.07425,39.23002],[117.07439,39.22972],[117.07473,39.2296],[117.09462,39.22464],[117.09566,39.22417],[117.09958,39.22143],[117.09983,39.22114],[117.09987,39.2208],[117.09969,39.22057],[117.09934,39.22049],[117.09895,39.22069],[117.09888,39.22113],[117.09978,39.22275],[117.10146,39.22649],[117.10456,39.23282],[117.10552,39.23427],[117.10587,39.23419],[117.10633,39.23386],[117.10733,39.23197],[117.10792,39.23121],[117.10957,39.22993],[117.11027,39.22954],[117.11097,39.22927],[117.11228,39.22903],[117.11292,39.22904],[117.11433,39.2289],[117.11488,39.22901],[117.1179,39.22907],[117.11841,39.22895],[117.11949,39.22689],[117.11973,39.22621],[117.1211,39.22414],[117.12372,39.22118],[117.12675,39.21858],[117.12823,39.21708],[117.12882,39.21628],[117.12879,39.21603],[117.12918,39.21574],[117.12968,39.21518],[117.13117,39.21313],[117.13299,39.21088],[117.13375,39.20964],[117.13421,39.20907],[117.1346,39.20835],[117.13577,39.20717],[117.13723,39.20509],[117.13738,39.20458],[117.13743,39.2031],[117.13755,39.2027],[117.13801,39.20261],[117.13869,39.20275],[117.13892,39.20268],[117.13904,39.20255],[117.13907,39.20234],[117.13864,39.20188],[117.13852,39.20158],[117.13882,39.20153],[117.13961,39.20159],[117.14026,39.20151],[117.14132,39.20101],[117.14244,39.2001],[117.14866,39.19427],[117.14942,39.19351],[117.14948,39.19322],[117.15126,39.19171],[117.15142,39.19141],[117.15242,39.19106],[117.15641,39.18819],[117.15789,39.187],[117.1604,39.18524],[117.16139,39.18473],[117.16174,39.18441],[117.16191,39.18399],[117.1618,39.1834],[117.16047,39.18156],[117.16032,39.18125],[117.16035,39.18111],[117.15989,39.18064],[117.16041,39.17992],[117.16225,39.17645],[117.16219,39.17626],[117.16143,39.1758],[117.16128,39.17563],[117.16278,39.17465],[117.16311,39.17451],[117.16348,39.17446],[117.16364,39.17431],[117.1637,39.17406],[117.16393,39.17409],[117.16443,39.17362],[117.16514,39.17231],[117.1653,39.17173],[117.16615,39.17047],[117.16697,39.16875],[117.16711,39.1678],[117.16688,39.16524],[117.16709,39.16446],[117.16657,39.16376],[117.16625,39.16287],[117.16605,39.1628],[117.16638,39.16105],[117.16649,39.16092],[117.16671,39.16086],[117.16766,39.16088],[117.16854,39.16074],[117.16939,39.16044],[117.17032,39.16003],[117.17204,39.15898],[117.17275,39.15829]]]}},{"type":"Feature","id":"oct04-tianjin-beijing","properties":{"title":"归途：天津至北京","date":"2026-10-04","distanceKm":103.4,"maxZoom":11},"geometry":{"type":"MultiLineString","coordinates":[[[117.06201,39.37007],[117.06183,39.37098],[117.06213,39.37214],[117.06287,39.37417],[117.06307,39.37685],[117.06338,39.37838],[117.06394,39.38036],[117.06502,39.38238],[117.06539,39.38355],[117.06529,39.38389],[117.06503,39.38421],[117.06488,39.38428],[117.06529,39.38437],[117.0653,39.38475],[117.0638,39.38866],[117.06376,39.38973],[117.06385,39.39015],[117.0643,39.39135],[117.0665,39.39563],[117.06828,39.39805],[117.06851,39.39829],[117.06876,39.3984],[117.06893,39.39884],[117.06979,39.40003],[117.07017,39.40078],[117.07049,39.40185],[117.07058,39.40267],[117.07041,39.40515],[117.07017,39.40558],[117.06986,39.40668],[117.06829,39.41091],[117.06789,39.41145],[117.06736,39.41197],[117.06554,39.41335],[117.06513,39.41381],[117.06482,39.41435],[117.06454,39.41542],[117.06461,39.4179],[117.06451,39.41884],[117.0641,39.42089],[117.06368,39.42186],[117.06089,39.42627],[117.05968,39.42837],[117.05752,39.43172],[117.04985,39.44229],[117.0493,39.44327],[117.04896,39.44445],[117.04896,39.44588],[117.04928,39.44677],[117.04937,39.4473],[117.05052,39.45018],[117.05087,39.45188],[117.05082,39.45334],[117.05049,39.45466],[117.04982,39.45603],[117.04929,39.45679],[117.0479,39.45828],[117.04696,39.45905],[117.04448,39.4603],[117.04376,39.46052],[117.04143,39.46099],[117.04028,39.46108],[117.03415,39.462],[117.03293,39.46232],[117.03232,39.46257],[117.03132,39.46309],[117.03005,39.46413],[117.02638,39.46885],[117.02576,39.46946],[117.02502,39.46999],[117.02438,39.47035],[117.02336,39.47077],[117.01776,39.47227],[117.01679,39.47267],[117.01586,39.47327],[117.01512,39.47405],[117.01237,39.47799],[117.00824,39.48359],[117.0059,39.48647],[117.0037,39.48937],[117.00299,39.49044],[116.99435,39.50854],[116.99077,39.51584],[116.98963,39.51838],[116.9888,39.51985],[116.98825,39.52128],[116.98816,39.5213],[116.98816,39.52149],[116.9866,39.52488],[116.98458,39.52889],[116.98085,39.53672],[116.97966,39.53894],[116.97586,39.54552],[116.97512,39.54715],[116.97452,39.54916],[116.97377,39.55245],[116.97052,39.56269],[116.96919,39.56651],[116.96767,39.57236],[116.96743,39.57359],[116.96726,39.57896],[116.96707,39.5803],[116.96312,39.59764],[116.96296,39.59886],[116.96291,39.60125],[116.96275,39.60281],[116.96222,39.60503],[116.96032,39.61192]],[[116.94659,39.63532],[116.94585,39.63641],[116.94501,39.63792],[116.94344,39.64041],[116.94316,39.64112],[116.94044,39.64563],[116.93957,39.64673],[116.93863,39.64758],[116.93226,39.65277],[116.92474,39.65937],[116.92193,39.66202],[116.92043,39.66326],[116.9177,39.66571],[116.91294,39.67018],[116.9111,39.67203],[116.90687,39.67762],[116.90552,39.67952],[116.90517,39.68017],[116.904,39.68149],[116.9028,39.68308],[116.90027,39.68691],[116.89892,39.68916],[116.89839,39.6898],[116.89774,39.69103],[116.89676,39.69239],[116.89426,39.6965],[116.89318,39.69804],[116.89249,39.69927],[116.89172,39.70028],[116.89031,39.70199],[116.88981,39.70239],[116.88851,39.70393],[116.88582,39.70665],[116.88311,39.70975],[116.88269,39.71006],[116.88261,39.71035],[116.88231,39.71078],[116.88222,39.71114],[116.88196,39.71146],[116.88129,39.71189],[116.87938,39.71447],[116.8752,39.71964],[116.87488,39.7199],[116.87445,39.72059],[116.87156,39.72417],[116.86919,39.72727],[116.86703,39.72992],[116.86559,39.73136],[116.86384,39.73272],[116.86049,39.73502],[116.8579,39.73713],[116.8567,39.73795],[116.85299,39.73995],[116.85202,39.7404],[116.84888,39.74226],[116.84421,39.74676],[116.84325,39.74756],[116.8417,39.74956],[116.84019,39.75194],[116.83976,39.75247],[116.83921,39.75297],[116.83784,39.75395],[116.83619,39.75478],[116.83575,39.75505],[116.83568,39.7552],[116.83504,39.75552],[116.82952,39.75963],[116.82744,39.76109],[116.82593,39.76181],[116.82266,39.76264],[116.82103,39.76284],[116.81682,39.7631],[116.81495,39.76342],[116.81079,39.76434],[116.80841,39.76459],[116.80584,39.7647],[116.80434,39.76502],[116.80337,39.76538],[116.80277,39.7657],[116.79754,39.76978],[116.79649,39.77118],[116.7924,39.77578],[116.78953,39.7792],[116.78948,39.77925],[116.7894,39.7792],[116.78872,39.78009],[116.78667,39.7824],[116.78167,39.78725],[116.78056,39.78892],[116.77747,39.79723],[116.7753,39.80133],[116.77311,39.80647],[116.77321,39.80651],[116.77309,39.8066],[116.77282,39.80737],[116.7724,39.80892],[116.77174,39.8126],[116.7716,39.81415],[116.772,39.81591],[116.77413,39.82133],[116.7753,39.82482],[116.77556,39.82586],[116.7755,39.82675],[116.77502,39.8278],[116.77241,39.83164],[116.76828,39.83861],[116.76762,39.83946],[116.76671,39.84037],[116.76586,39.84102],[116.76411,39.84225],[116.76221,39.84344],[116.75999,39.84454],[116.75483,39.84679],[116.75415,39.84721],[116.75291,39.84776],[116.74995,39.8493],[116.74807,39.85044],[116.74578,39.85167],[116.74129,39.85473],[116.73985,39.85547],[116.73871,39.85593],[116.73835,39.85598],[116.73821,39.85611],[116.73655,39.85643],[116.72982,39.85826],[116.72585,39.85923],[116.72384,39.85984],[116.72202,39.86024],[116.71887,39.86115],[116.71602,39.86189],[116.71457,39.86218],[116.70557,39.86457],[116.70293,39.86519],[116.70057,39.86591],[116.69321,39.86787],[116.69384,39.86771],[116.69404,39.86774],[116.69367,39.86769],[116.69364,39.86782],[116.6935,39.86781],[116.69284,39.86807],[116.68871,39.86901],[116.6781,39.87181],[116.67636,39.87242],[116.67546,39.87291],[116.67482,39.87336],[116.67246,39.87523],[116.67155,39.87611],[116.66615,39.8802],[116.66487,39.88142],[116.66241,39.88345],[116.66183,39.88385],[116.65726,39.88763],[116.65645,39.88818],[116.65343,39.88906],[116.65227,39.88949],[116.65145,39.88963],[116.65046,39.89002],[116.64655,39.89102],[116.64509,39.89114],[116.6435,39.89157],[116.64312,39.89155],[116.64311,39.8915],[116.64193,39.89157],[116.63884,39.89153],[116.63819,39.89155],[116.63799,39.89162],[116.63795,39.89189],[116.63826,39.89342],[116.63822,39.89361],[116.63734,39.89451],[116.63585,39.89665],[116.63519,39.89786],[116.63327,39.90082],[116.63316,39.90122],[116.63215,39.90259],[116.63155,39.90358],[116.63092,39.90427],[116.6308,39.90456],[116.63043,39.90462],[116.63019,39.90499],[116.62966,39.90521],[116.62607,39.90566],[116.62553,39.90565],[116.62537,39.90557],[116.62447,39.90564],[116.62268,39.90544],[116.62074,39.90551],[116.61968,39.90568],[116.61948,39.90564],[116.6192,39.90539],[116.61902,39.90534],[116.61793,39.90553],[116.61657,39.90566],[116.61349,39.90572],[116.61039,39.90509],[116.60946,39.90508],[116.60852,39.90523],[116.60784,39.90542],[116.60621,39.90606],[116.60555,39.90644],[116.60513,39.90694],[116.60482,39.90714],[116.60225,39.90795],[116.60117,39.90816],[116.59996,39.90825],[116.59525,39.90834],[116.59498,39.90845],[116.59373,39.9084],[116.58958,39.9086],[116.58701,39.90859],[116.58522,39.90869],[116.58339,39.90869],[116.58155,39.90886],[116.57936,39.90922],[116.57824,39.90924],[116.57586,39.90952],[116.57333,39.90967],[116.57209,39.90964],[116.57146,39.90959],[116.57134,39.90952],[116.57092,39.90957],[116.56762,39.90917],[116.56597,39.90875],[116.56549,39.90869],[116.5643,39.90875],[116.56281,39.90866],[116.5607,39.90873],[116.55909,39.9086],[116.55775,39.90863],[116.55511,39.90848],[116.54572,39.90838],[116.5438,39.90855],[116.54233,39.90857],[116.54158,39.90869],[116.5411,39.90891],[116.53992,39.90972],[116.53953,39.90985],[116.5369,39.90987],[116.53649,39.90978],[116.53505,39.90896],[116.53399,39.90871],[116.53,39.90857],[116.52644,39.90861],[116.52522,39.90872],[116.52265,39.90868],[116.51885,39.90816],[116.51424,39.90717],[116.51222,39.90688],[116.5118,39.90669],[116.50967,39.9069],[116.50619,39.907],[116.50437,39.90694],[116.49683,39.90718],[116.49186,39.90712],[116.48886,39.9072],[116.48839,39.90703],[116.48031,39.90723],[116.47732,39.90718],[116.47643,39.90721],[116.47536,39.90735],[116.47214,39.90722],[116.47198,39.90733],[116.47213,39.90854],[116.47198,39.90946],[116.47201,39.90985],[116.47165,39.90968],[116.47149,39.90911],[116.47134,39.90899],[116.47111,39.90897],[116.47068,39.90909],[116.46984,39.90899],[116.46956,39.9089],[116.4693,39.90863],[116.46889,39.90853],[116.4679,39.90848],[116.46735,39.90864],[116.46723,39.90855],[116.46599,39.90859],[116.46577,39.9087],[116.46579,39.90897]],[[116.46104,39.90719],[116.45947,39.90731],[116.45708,39.90723],[116.45581,39.90739],[116.45465,39.90733],[116.45239,39.90733],[116.45178,39.90739],[116.45117,39.9073],[116.44443,39.90744],[116.44279,39.90736],[116.43867,39.90744],[116.43788,39.90735],[116.43556,39.90744],[116.4312,39.90742],[116.43074,39.90743],[116.43031,39.90754],[116.42915,39.90752],[116.42869,39.90759],[116.42805,39.9074],[116.4258,39.90734],[116.42299,39.90738],[116.42021,39.90722],[116.41292,39.90709],[116.41208,39.90715],[116.41196,39.90741],[116.41185,39.90893],[116.41175,39.90913],[116.40881,39.90908],[116.40697,39.90938],[116.4058,39.90919],[116.40376,39.90912],[116.40132,39.90921],[116.40142,39.90943],[116.40144,39.90989],[116.40108,39.91139],[116.40104,39.9126],[116.40087,39.91346],[116.40092,39.91382],[116.40086,39.91394],[116.40056,39.91406],[116.40048,39.91434],[116.40001,39.92431],[116.40004,39.92514],[116.39988,39.92624],[116.39972,39.92914],[116.39974,39.93008],[116.39961,39.93172],[116.39963,39.9319],[116.39973,39.93198],[116.39968,39.93209],[116.39941,39.93219],[116.39799,39.93225],[116.39596,39.93224],[116.39509,39.93215],[116.39035,39.93223],[116.38804,39.93218],[116.38637,39.93227],[116.38362,39.93206],[116.38065,39.93201],[116.37659,39.93177],[116.37454,39.93177],[116.36817,39.93146],[116.36693,39.93154],[116.36683,39.93339],[116.3667,39.93419],[116.36668,39.9365],[116.36681,39.93752],[116.36616,39.94234],[116.36604,39.9467],[116.366,39.94711],[116.36588,39.94718],[116.36596,39.94775],[116.36581,39.94874],[116.36583,39.94945],[116.36569,39.94998],[116.36534,39.95324],[116.36524,39.95521],[116.36535,39.9557],[116.36513,39.9567],[116.36502,39.95684],[116.36438,39.95673],[116.36199,39.95671],[116.36001,39.95678],[116.35656,39.95674],[116.35536,39.95684],[116.3552,39.95698],[116.35505,39.95738],[116.35515,39.95797],[116.35508,39.95821],[116.35514,39.95921],[116.35504,39.9609],[116.35492,39.96101],[116.35462,39.96109],[116.35367,39.96102]]]}}]}