{
	"type": "FeatureCollection",
	"features": [
		{
			"type": "Feature",
			"id": "oct01-beijing-tianjin-estimated",
			"properties": {
				"routeId": "oct01-beijing-tianjin",
				"title": "估算补绘：北三环至国贸",
				"date": "2026-10-01",
				"maxZoom": 11,
				"estimated": true
			},
			"geometry": {
				"type": "LineString",
				"coordinates": [
					[116.34385, 39.96607],
					[116.3502, 39.9668],
					[116.3635, 39.9672],
					[116.376, 39.9676],
					[116.390, 39.9680],
					[116.405, 39.9682],
					[116.420, 39.9681],
					[116.435, 39.9678],
					[116.448, 39.9672],
					[116.457, 39.9650],
					[116.461, 39.960],
					[116.462, 39.950],
					[116.462, 39.940],
					[116.460, 39.930],
					[116.457, 39.925],
					[116.45512, 39.92242]
				]
			}
		},
		{
			"type": "Feature",
			"id": "sep25-east-estimated",
			"properties": {
				"routeId": "sep25-east",
				"title": "估算补绘：大悦城返程及亮马河",
				"date": "2026-09-25",
				"maxZoom": 15,
				"estimated": true
			},
			"geometry": {
				"type": "LineString",
				"coordinates": [
					[116.50966, 39.92168],
					[116.50895, 39.92176],
					[116.50815, 39.92170],
					[116.50442, 39.92176],
					[116.50319, 39.92168],
					[116.49743, 39.92168],
					[116.49561, 39.92160],
					[116.49225, 39.92156],
					[116.48992, 39.92149],
					[116.48728, 39.92148],
					[116.48628, 39.92128],
					[116.48593, 39.92128],
					[116.48475, 39.92152],
					[116.48337, 39.92126],
					[116.48296, 39.92172],
					[116.48306, 39.92274],
					[116.48340, 39.92401],
					[116.48341, 39.92850],
					[116.48329, 39.93029],
					[116.48333, 39.93194],
					[116.48325, 39.93215],
					[116.48026, 39.93202],
					[116.4807, 39.936],
					[116.4812, 39.940],
					[116.4822, 39.944],
					[116.4840, 39.948],
					[116.4815, 39.952],
					[116.4775, 39.955],
					[116.4730, 39.9535],
					[116.4690, 39.9515],
					[116.46550, 39.95029]
				]
			}
		}
	]
}
